IRIDIUM 39              
1 25042U 97069D   25229.57948382  .00000616  00000+0  15577-3 0  9990
2 25042  86.3964 184.8264 0020122 100.2191 260.1284 14.49281239457850
IRIDIUM 38              
1 25043U 97069E   25229.18927895  .00000403  00000+0  12652-3 0  9999
2 25043  86.3971 207.4958 0000509 131.3864 228.7378 14.38159004454729
IRIDIUM 42              
1 25077U 97077A   25229.20077611  .00000401  00000+0  13014-3 0  9991
2 25077  86.3963 213.7322 0001512  84.2185 275.9185 14.36390869449952
IRIDIUM 44              
1 25078U 97077B   25229.19899729  .00000436  00000+0  13159-3 0  9990
2 25078  86.3994 195.5105 0002701 131.1502 228.9930 14.40282722452480
IRIDIUM 45              
1 25104U 97082A   25229.41519418  .00020241  00000+0  68216-3 0  9995
2 25104  86.3588  18.1089 0114094 101.9155 259.4910 15.24457629461365
IRIDIUM 24              
1 25105U 97082B   25229.57912286  .00000412  00000+0  11915-3 0  9995
2 25105  86.3864  54.2410 0009674 228.1431 131.8944 14.42145774452069
IRIDIUM 51              
1 25262U 98018A   25229.44150216  .00030482  00000+0  59878-3 0  9992
2 25262  86.3821  25.4036 0079453  15.0926 345.2672 15.43684577456462
IRIDIUM 57              
1 25273U 98019B   25229.42628824  .00000275  00000+0  88113-4 0  9990
2 25273  86.3968 119.6129 0002073  87.1463 272.9971 14.35927690433576
